start=new Date('2022-05-19T00:00:00.000Z').valueOf();
sats=[{"MEAN_ANOMALY":"294.2722","TLE_LINE1":"1 47898U 21021AQ  22138.93876732  .00000237  00000-0  34821-4 0  9997","PERIOD":"95.592","COUNTRY_CODE":"US","EPHEMERIS_TYPE":"0","BSTAR":"0.00003482100000","INCLINATION":"53.0567","OBJECT_ID":"2021-021AQ","CLASSIFICATION_TYPE":"U","OBJECT_NAME":"STARLINK-2358","DECAY_DATE":null,"TLE_LINE2":"2 47898  53.0567  34.9570 0001883  65.8463 294.2722 15.06395444 66094","MEAN_MOTION_DDOT":"0.0000000000000","ARG_OF_PERICENTER":"65.8463","RA_OF_ASC_NODE":"34.9570","EPOCH":"2022-05-18T22:31:49.496448","ECCENTRICITY":"0.00018830","NORAD_CAT_ID":"47898","RCS_SIZE":"LARGE","TIME_SYSTEM":"UTC","REV_AT_EPOCH":"6609","MEAN_ELEMENT_THEORY":"SGP4","FILE":"3452385","CENTER_NAME":"EARTH","LAUNCH_DATE":"2021-03-14","APOAPSIS":"548.532","SEMIMAJOR_AXIS":"6925.363","REF_FRAME":"TEME","MEAN_MOTION_DOT":"0.00000237","PERIAPSIS":"545.923","GP_ID":"203908839","OBJECT_TYPE":"PAYLOAD","SITE":"AFETR","ELEMENT_SET_NO":"999","MEAN_MOTION":"15.06395444"},{"BSTAR":"0.00017739000000","INCLINATION":"53.0556","OBJECT_ID":"2021-021AR","CLASSIFICATION_TYPE":"U","MEAN_ANOMALY":"301.1884","TLE_LINE1":"1 47899U 21021AR  22138.07348933  .00002362  00000-0  17739-3 0  9999","PERIOD":"95.592","COUNTRY_CODE":"US","EPHEMERIS_TYPE":"0","ARG_OF_PERICENTER":"58.9279","RA_OF_ASC_NODE":"28.8351","EPOCH":"2022-05-18T01:45:49.478112","ECCENTRICITY":"0.00017740","OBJECT_NAME":"STARLINK-2359","DECAY_DATE":null,"MEAN_MOTION_DDOT":"0.0000000000000","TLE_LINE2":"2 47899  53.0556  28.8351 0001774  58.9279 301.1884 15.06403372 66119","MEAN_ELEMENT_THEORY":"SGP4","FILE":"3452051","CENTER_NAME":"EARTH","NORAD_CAT_ID":"47899","RCS_SIZE":"LARGE","TIME_SYSTEM":"UTC","REV_AT_EPOCH":"6611","OBJECT_TYPE":"PAYLOAD","SITE":"AFETR","ELEMENT_SET_NO":"999","MEAN_MOTION":"15.06403372","LAUNCH_DATE":"2021-03-14","APOAPSIS":"548.432","SEMIMAJOR_AXIS":"6925.338","REF_FRAME":"TEME","MEAN_MOTION_DOT":"0.00002362","PERIAPSIS":"545.975","GP_ID":"203876089"},{"EPOCH":"2022-05-19T02:13:23.516256","ECCENTRICITY":"0.00017840","ARG_OF_PERICENTER":"49.1668","RA_OF_ASC_NODE":"34.2618","TLE_LINE2":"2 47900  53.0556  34.2618 0001784  49.1668 310.9476 15.06396014 66113","MEAN_MOTION_DDOT":"0.0000000000000","DECAY_DATE":null,"OBJECT_NAME":"STARLINK-2360","INCLINATION":"53.0556","CLASSIFICATION_TYPE":"U","OBJECT_ID":"2021-021AS","BSTAR":"0.00005213100000","EPHEMERIS_TYPE":"0","MEAN_ANOMALY":"310.9476","COUNTRY_CODE":"US","PERIOD":"95.592","TLE_LINE1":"1 47900U 21021AS  22139.09263329  .00000495  00000-0  52131-4 0  9991","ELEMENT_SET_NO":"999","MEAN_MOTION":"15.06396014","OBJECT_TYPE":"PAYLOAD","SITE":"AFETR","GP_ID":"203918984","MEAN_MOTION_DOT":"0.00000495","PERIAPSIS":"545.990","APOAPSIS":"548.461","LAUNCH_DATE":"2021-03-14","REF_FRAME":"TEME","SEMIMAJOR_AXIS":"6925.361","CENTER_NAME":"EARTH","MEAN_ELEMENT_THEORY":"SGP4","FILE":"3452794","REV_AT_EPOCH":"6611","NORAD_CAT_ID":"47900","TIME_SYSTEM":"UTC","RCS_SIZE":"LARGE"},{"REF_FRAME":"TEME","SEMIMAJOR_AXIS":"6925.335","APOAPSIS":"548.355","LAUNCH_DATE":"2021-03-14","GP_ID":"203909186","MEAN_MOTION_DOT":"0.00003181","PERIAPSIS":"546.045","SITE":"AFETR","OBJECT_TYPE":"PAYLOAD","MEAN_MOTION":"15.06404453","ELEMENT_SET_NO":"999","TIME_SYSTEM":"UTC","RCS_SIZE":"LARGE","NORAD_CAT_ID":"47901","REV_AT_EPOCH":"6626","FILE":"3452386","MEAN_ELEMENT_THEORY":"SGP4","CENTER_NAME":"EARTH","DECAY_DATE":null,"OBJECT_NAME":"STARLINK-2361","TLE_LINE2":"2 47901  53.0558  23.8519 0001668  62.9151 297.2008 15.06404453 66262","MEAN_MOTION_DDOT":"0.0000000000000","RA_OF_ASC_NODE":"23.8519","ARG_OF_PERICENTER":"62.9151","ECCENTRICITY":"0.00016680","EPOCH":"2022-05-19T04:22:06.090816","COUNTRY_CODE":"US","TLE_LINE1":"1 47901U 21021AT  22139.18201494  .00003181  00000-0  23233-3 0  9992","PERIOD":"95.592","MEAN_ANOMALY":"297.2008","EPHEMERIS_TYPE":"0","BSTAR":"0.00023233000000","CLASSIFICATION_TYPE":"U","OBJECT_ID":"2021-021AT","INCLINATION":"53.0558"},{"GP_ID":"203908869","MEAN_MOTION_DOT":"0.00001218","PERIAPSIS":"546.140","APOAPSIS":"548.420","LAUNCH_DATE":"2021-03-14","REF_FRAME":"TEME","SEMIMAJOR_AXIS":"6925.415","ELEMENT_SET_NO":"999","MEAN_MOTION":"15.06378228","OBJECT_TYPE":"PAYLOAD","SITE":"AFETR","REV_AT_EPOCH":"6596","NORAD_CAT_ID":"47902","TIME_SYSTEM":"UTC","RCS_SIZE":"LARGE","CENTER_NAME":"EARTH","MEAN_ELEMENT_THEORY":"SGP4","FILE":"3452387","MEAN_MOTION_DDOT":"0.0000000000000","TLE_LINE2":"2 47902  53.0572  44.4757 0001646  55.9237 304.1908 15.06378228 65968","DECAY_DATE":null,"OBJECT_NAME":"STARLINK-2362","EPOCH":"2022-05-19T00:59:07.733472","ECCENTRICITY":"0.00016460","ARG_OF_PERICENTER":"55.9237","RA_OF_ASC_NODE":"44.4757","EPHEMERIS_TYPE":"0","MEAN_ANOMALY":"304.1908","COUNTRY_CODE":"US","PERIOD":"95.594","TLE_LINE1":"1 47902U 21021AU  22139.04106173  .00001218  00000-0  10072-3 0  9992","INCLINATION":"53.0572","CLASSIFICATION_TYPE":"U","OBJECT_ID":"2021-021AU","BSTAR":"0.00010072000000"},{"DECAY_DATE":null,"OBJECT_NAME":"STARLINK-2363","TLE_LINE2":"2 47903  53.0571  28.5478 0002231  44.5574 315.5594 15.06401115 66937","MEAN_MOTION_DDOT":"0.0000000000000","ARG_OF_PERICENTER":"44.5574","RA_OF_ASC_NODE":"28.5478","EPOCH":"2022-05-18T03:16:03.143136","ECCENTRICITY":"0.00022310","MEAN_ANOMALY":"315.5594","COUNTRY_CODE":"US","TLE_LINE1":"1 47903U 21021AV  22138.13614749  .00002849  00000-0  21010-3 0  9990","PERIOD":"95.592","EPHEMERIS_TYPE":"0","BSTAR":"0.00021010000000","INCLINATION":"53.0571","CLASSIFICATION_TYPE":"U","OBJECT_ID":"2021-021AV","APOAPSIS":"548.755","LAUNCH_DATE":"2021-03-14","REF_FRAME":"TEME","SEMIMAJOR_AXIS":"6925.345","GP_ID":"203870985","PERIAPSIS":"545.665","MEAN_MOTION_DOT":"0.00002849","OBJECT_TYPE":"PAYLOAD","SITE":"AFETR","ELEMENT_SET_NO":"999","MEAN_MOTION":"15.06401115","NORAD_CAT_ID":"47903","TIME_SYSTEM":"UTC","RCS_SIZE":"LARGE","REV_AT_EPOCH":"6693","MEAN_ELEMENT_THEORY":"SGP4","FILE":"3451871","CENTER_NAME":"EARTH"},{"BSTAR":"0.00019123000000","INCLINATION":"53.0556","CLASSIFICATION_TYPE":"U","OBJECT_ID":"2021-021AW","MEAN_ANOMALY":"286.3127","COUNTRY_CODE":"US","PERIOD":"95.592","TLE_LINE1":"1 47904U 21021AW  22138.79593321  .00002568  00000-0  19123-3 0  9995","EPHEMERIS_TYPE":"0","ARG_OF_PERICENTER":"73.8035","RA_OF_ASC_NODE":"25.5925","EPOCH":"2022-05-18T19:06:08.629344","ECCENTRICITY":"0.00015730","DECAY_DATE":null,"OBJECT_NAME":"STARLINK-2364","MEAN_MOTION_DDOT":"0.0000000000000","TLE_LINE2":"2 47904  53.0556  25.5925 0001573  73.8035 286.3127 15.06404717 66679","MEAN_ELEMENT_THEORY":"SGP4","FILE":"3452356","CENTER_NAME":"EARTH","NORAD_CAT_ID":"47904","TIME_SYSTEM":"UTC","RCS_SIZE":"LARGE","REV_AT_EPOCH":"6667","OBJECT_TYPE":"PAYLOAD","SITE":"AFETR","ELEMENT_SET_NO":"999","MEAN_MOTION":"15.06404717","LAUNCH_DATE":"2021-03-14","APOAPSIS":"548.288","REF_FRAME":"TEME","SEMIMAJOR_AXIS":"6925.334","GP_ID":"203905658","PERIAPSIS":"546.110","MEAN_MOTION_DOT":"0.00002568"},{"TLE_LINE1":"1 47905U 21021AX  22139.12397968  .00002191  00000-0  16594-3 0  9994","PERIOD":"95.592","COUNTRY_CODE":"US","MEAN_ANOMALY":"297.9895","EPHEMERIS_TYPE":"0","BSTAR":"0.00016594000000","OBJECT_ID":"2021-021AX","CLASSIFICATION_TYPE":"U","INCLINATION":"53.0545","OBJECT_NAME":"STARLINK-2365","DECAY_DATE":null,"TLE_LINE2":"2 47905  53.0545  24.1174 0001444  62.1240 297.9895 15.06401205 66270","MEAN_MOTION_DDOT":"0.0000000000000","RA_OF_ASC_NODE":"24.1174","ARG_OF_PERICENTER":"62.1240","ECCENTRICITY":"0.00014440","EPOCH":"2022-05-19T02:58:31.844352","RCS_SIZE":"LARGE","TIME_SYSTEM":"UTC","NORAD_CAT_ID":"47905","REV_AT_EPOCH":"6627","FILE":"3452393","MEAN_ELEMENT_THEORY":"SGP4","CENTER_NAME":"EARTH","SEMIMAJOR_AXIS":"6925.345","REF_FRAME":"TEME","APOAPSIS":"548.210","LAUNCH_DATE":"2021-03-14","MEAN_MOTION_DOT":"0.00002191","PERIAPSIS":"546.210","GP_ID":"203909238","SITE":"AFETR","OBJECT_TYPE":"PAYLOAD","MEAN_MOTION":"15.06401205","ELEMENT_SET_NO":"999"},{"NORAD_CAT_ID":"47906","TIME_SYSTEM":"UTC","RCS_SIZE":"LARGE","REV_AT_EPOCH":"6821","MEAN_ELEMENT_THEORY":"SGP4","FILE":"3452551","CENTER_NAME":"EARTH","LAUNCH_DATE":"2021-03-14","APOAPSIS":"342.001","REF_FRAME":"TEME","SEMIMAJOR_AXIS":"6717.852","GP_ID":"203913185","PERIAPSIS":"337.433","MEAN_MOTION_DOT":"-0.00001030","OBJECT_TYPE":"PAYLOAD","SITE":"AFETR","ELEMENT_SET_NO":"999","MEAN_MOTION":"15.76729244","MEAN_ANOMALY":"335.0024","COUNTRY_CODE":"US","TLE_LINE1":"1 47906U 21021AY  22138.74001511 -.00001030  00000-0 -22665-5 0  9999","PERIOD":"91.328","EPHEMERIS_TYPE":"0","BSTAR":"-0.00000226650000","INCLINATION":"53.0370","CLASSIFICATION_TYPE":"U","OBJECT_ID":"2021-021AY","DECAY_DATE":null,"OBJECT_NAME":"STARLINK-2366","TLE_LINE2":"2 47906  53.0370 241.7493 0003400  25.1160 335.0024 15.76729244 68219","MEAN_MOTION_DDOT":"0.0000000000000","ARG_OF_PERICENTER":"25.1160","RA_OF_ASC_NODE":"241.7493","EPOCH":"2022-05-18T17:45:37.305504","ECCENTRICITY":"0.00034000"},{"ECCENTRICITY":"0.00017520","EPOCH":"2022-05-18T06:29:47.657472","RA_OF_ASC_NODE":"47.9471","ARG_OF_PERICENTER":"61.1799","TLE_LINE2":"2 47907  53.0560  47.9471 0001752  61.1799 298.9366 15.06400738 66298","MEAN_MOTION_DDOT":"0.0000000000000","OBJECT_NAME":"STARLINK-2367","DECAY_DATE":null,"OBJECT_ID":"2021-021AZ","CLASSIFICATION_TYPE":"U","INCLINATION":"53.0560","BSTAR":"0.00032218000000","EPHEMERIS_TYPE":"0","PERIOD":"95.592","TLE_LINE1":"1 47907U 21021AZ  22138.27069048  .00004521  00000-0  32218-3 0  9996","COUNTRY_CODE":"US","MEAN_ANOMALY":"298.9366","MEAN_MOTION":"15.06400738","ELEMENT_SET_NO":"999","SITE":"AFETR","OBJECT_TYPE":"PAYLOAD","MEAN_MOTION_DOT":"0.00004521","PERIAPSIS":"545.998","GP_ID":"203871484","SEMIMAJOR_AXIS":"6925.346","REF_FRAME":"TEME","APOAPSIS":"548.425","LAUNCH_DATE":"2021-03-14","CENTER_NAME":"EARTH","FILE":"3451871","MEAN_ELEMENT_THEORY":"SGP4","REV_AT_EPOCH":"6629","RCS_SIZE":"LARGE","TIME_SYSTEM":"UTC","NORAD_CAT_ID":"47907"}];
